STARLINK-31106          
1 58689U 23211Y   24008.25001157 -.01084888  00000+0 -57567-2 0  9990
2 58689  43.0018 232.4632 0001968 277.8506  81.4832 15.81893659  2626
HULIANWANG JISHU SHIYAN*
1 58691U 23212A   24008.13465078  .00000050  00000+0  16548-3 0  9998
2 58691  50.0022  32.8105 0007617 332.3409  27.7082 13.86988246  1275
HULIANWANG JISHU SHIYAN*
1 58692U 23212B   24008.12966068 -.00000025  00000+0  10120-3 0  9996
2 58692  49.9990  32.7835 0004828 319.6096  40.4442 13.87743267  1272
HULIANWANG JISHU SHIYAN*
1 58693U 23212C   24008.13179777 -.00000026  00000+0  10002-3 0  9991
2 58693  50.0004  32.7953 0006887 314.5997  45.4337 13.87450665  1279
XPOSAT                  
1 58694U 24001A   24001.68468223  .00000628  00000+0  00000+0 0  9999
2 58694   5.9870 115.4463 0010488 359.8378  55.4280 14.74838619    62
POEM-3                  
1 58695U 24001B   24004.74596407  .00092557  00000+0  58649-3 0  9994
2 58695   9.6656  72.7065 0007207  17.7941 342.2525 15.74485948   568
2024-003A               
1 58698U 24003A   24004.22997167 -.00000275  00000+0  00000+0 0  9991
2 58698  26.8131 295.4278 7797415 180.3543 147.2679  1.65444498    01
2024-003B               
1 58699U 24003B   24007.87939524  .00004956  00000+0  34763-2 0  9994
2 58699  26.7875 294.5137 7793597 181.8329 171.0383  1.66190692    74
2024-004A               
1 58700U 24004A   24006.99270356 -.00046628  00000+0 -25951-2 0  9994
2 58700  97.4558 191.3435 0010245 251.8701 233.3798 15.13792994   232
2024-004B               
1 58701U 24004B   24006.99249966  .00026228  00000+0  14393-2 0  9998
2 58701  97.4500 191.3409 0010116 259.9961 225.4155 15.14081561   225
2024-004C               
1 58702U 24004C   24006.99236487 -.00017262  00000+0 -94344-3 0  9998
2 58702  97.4515 191.3420 0009482 260.6035 224.5817 15.14219889   210
2024-004D               
1 58703U 24004D   24006.99207762 -.00023833  00000+0 -12906-2 0  9997
2 58703  97.4542 191.3442 0010381 270.4302 215.1410 15.14609621   213
KZ-1A R/B               
1 58704U 24004E   24007.62646976  .01738236  22497-5  89726-3 0  9997
2 58704  97.4366 192.1251 0255328  29.5895  45.6837 15.77119083   325
<!DOCTYPE html PUBLIC "-//W3C//DTD XHTML 1.0 Strict//EN" "http://www.w3.org/TR/xhtml1/DTD/xhtml1-strict.dtd">
<html xmlns="http://www.w3.org/1999/xhtml">
<head>
<meta http-equiv="Content-Type" content="text/html; charset=iso-8859-1"/>
<title>404 - File Not Found.</title>
<style type="text/css">
<!--
body{margin:0;font-size:.7em;font-family:Verdana, Arial, Helvetica, sans-serif;background:#EEEEEE;}
fieldset{padding:0 15px 10px 15px;}
h1{font-size:2.4em;margin:0;color:#FFF;}
h2{font-size:1.7em;margin:0;color:#CC0000;}
h3{font-size:1.2em;margin:10px 0 0 0;color:#000000;}
#header{width:96%;margin:0 0 0 0;padding:6px 2% 6px 2%;font-family:"trebuchet MS", Verdana, sans-serif;color:#FFF;
background-color:#555555;}
#content{margin:0 0 0 2%;position:relative;}
.content-container{background:#FFF;width:96%;margin-top:8px;padding:10px;position:relative;}
-->
</style>
</head>
<body>
<div id="header"><h1>Server Error</h1></div>
<div id="content">
 <div class="content-container"><fieldset>
  <h2>404 - File Not Found.</h2>
  <h3>File not found for celestrak.org/NORAD/elements/noaa.txt.</h3>
  <h3>Please contact <a href="mailto:ts.kelso@celestrak.org">ts.kelso@celestrak.org</a> if you have other questions.</h3>
 </fieldset></div>
</div>
</body>
</html>
<!DOCTYPE html PUBLIC "-//W3C//DTD XHTML 1.0 Strict//EN" "http://www.w3.org/TR/xhtml1/DTD/xhtml1-strict.dtd">
<html xmlns="http://www.w3.org/1999/xhtml">
<head>
<meta http-equiv="Content-Type" content="text/html; charset=iso-8859-1"/>
<title>404 - File Not Found.</title>
<style type="text/css">
<!--
body{margin:0;font-size:.7em;font-family:Verdana, Arial, Helvetica, sans-serif;background:#EEEEEE;}
fieldset{padding:0 15px 10px 15px;}
h1{font-size:2.4em;margin:0;color:#FFF;}
h2{font-size:1.7em;margin:0;color:#CC0000;}
h3{font-size:1.2em;margin:10px 0 0 0;color:#000000;}
#header{width:96%;margin:0 0 0 0;padding:6px 2% 6px 2%;font-family:"trebuchet MS", Verdana, sans-serif;color:#FFF;
background-color:#555555;}
#content{margin:0 0 0 2%;position:relative;}
.content-container{background:#FFF;width:96%;margin-top:8px;padding:10px;position:relative;}
-->
</style>
</head>
<body>
<div id="header"><h1>Server Error</h1></div>
<div id="content">
 <div class="content-container"><fieldset>
  <h2>404 - File Not Found.</h2>
  <h3>File not found for celestrak.org/NORAD/elements/other-comm.txt.</h3>
  <h3>Please contact <a href="mailto:ts.kelso@celestrak.org">ts.kelso@celestrak.org</a> if you have other questions.</h3>
 </fieldset></div>
</div>
</body>
</html>
ISS (ZARYA)             
1 25544U 98067A   24008.23598169  .00229868  00000+0  38927-2 0  9992
2 25544  51.6439  32.8445 0003493   5.2545  70.6507 15.50188828433591
ISS DEB                 
1 47853U 98067RZ  24007.87459346  .00106424  15382-4  32750-3 0  9996
2 47853  51.6271 322.8306 0002315  71.9491 288.1767 15.91702253161111
CSS (TIANHE)            
1 48274U 21035A   24007.41581300  .00031228  00000+0  34549-3 0  9994
2 48274  41.4700 351.3497 0005138  42.8490 317.2749 15.62322512153774
ISS (NAUKA)             
1 49044U 21066A   24007.51326684  .00012241  00000+0  22100-3 0  9991
2 49044  51.6408  36.4237 0003681   5.5289 354.5739 15.50143139433478
FREGAT DEB              
1 49271U 11037PF  24006.38315664  .00004632  00000+0  10537-1 0  9994
2 49271  51.6293  91.4329 1002595 141.2998 226.4196 12.11377078115447
CSS (WENTIAN)           
1 53239U 22085A   24007.37593640  .00021950  00000+0  24428-3 0  9998
2 53239  41.4696 351.5970 0004384  51.4999  84.0597 15.62324511153765
CSS (MENGTIAN)          
1 54216U 22143A   24007.37593640  .00021950  00000+0  24428-3 0  9999
2 54216  41.4696 351.5970 0004384  51.4999  84.0597 15.62324511153761
TIANZHOU-6              
1 56446U 23063A   24007.37593640  .00021950  00000+0  24428-3 0  9998
2 56446  41.4696 351.5970 0004384  51.4999  84.0597 15.62324511153768
ISS DEB                 
1 57212U 98067VP  24008.07201452  .00051561  00000+0  48228-3 0  9996
2 57212  51.6352  22.8952 0004346  69.6289 290.5173 15.66724769 30649
1998-067VQ              
1 57312U 98067VQ  24008.13076702  .11729772  12543-4  40887-3 0  9993
2 57312  51.6112   8.0369 0001119 318.8419  41.2524 16.44715588 29141
1998-067VR              
1 57313U 98067VR  24008.10688748  .00302503  44892-4  97440-3 0  9996
2 57313  51.6287  14.0325 0005545  51.8538 308.2967 15.90392323 29074
MOONLIGHTER             
1 57316U 98067VU  24006.27395212  .00071523  00000+0  44302-3 0  9998
2 57316  51.6322  25.8417 0003863  62.7265 297.4128 15.76389032 28746
CYGNUS NG-19            
1 57488U 23110A   24008.15742948  .00022702  00000+0  32546-3 0  9998
2 57488  51.6444  32.4851 0002638  79.1899 280.9389 15.56055691 24696
PROGRESS-MS 24          
1 57691U 23125A   24007.51326684  .00012241  00000+0  22100-3 0  9996
2 57691  51.6408  36.4237 0003681   5.5289 354.5739 15.50143139433475
CREW DRAGON 7           
1 57697U 23128A   24007.51326684  .00012241  00000+0  22100-3 0  9995
2 57697  51.6408  36.4237 0003681   5.5289 354.5739 15.50143139433471
SOYUZ-MS 24             
1 57862U 23143A   24007.51326684  .00012241  00000+0  22100-3 0  9996
2 57862  51.6408  36.4237 0003681   5.5289 354.5739 15.50143139433475
SHENZHOU-17 (SZ-17)     
1 58146U 23164A   24007.37593640  .00021950  00000+0  24428-3 0  9999
2 58146  41.4696 351.5970 0004384  51.4999  84.0597 15.62324511153767
ISS DEB                 
1 58174U 98067WA  24007.32022797  .00077809  00000+0  88577-3 0  9998
2 58174  51.6405  34.3869 0006146  31.5556 328.5805 15.61561102 11475
ISS DEB                 
1 58229U 98067WC  24007.44437909  .00039139  00000+0  55402-3 0  9992
2 58229  51.6397  35.2214 0004022  30.3332 329.7892 15.56096966 10260
PROGRESS-MS 25          
1 58460U 23184A   24007.51326684  .00012241  00000+0  22100-3 0  9996
2 58460  51.6408  36.4237 0003681   5.5289 354.5739 15.50143139433470
BEAK                    
1 58612U 98067WD  24007.48445912  .00038914  00000+0  61312-3 0  9992
2 58612  51.6408  36.2354 0005617  49.8265 310.3216 15.53156487  3200
CLARK SAT-1 (AMBITIOUS) 
1 58613U 98067WE  24008.12100123  .00071069  00000+0  10596-2 0  9992
2 58613  51.6406  32.9875 0006986  70.2144 289.9600 15.54404897  3271
